[{"OBJECT_NAME":"NUSAT-33 (ALBANIA-2)","OBJECT_ID":"2023-001AQ","EPOCH":"2026-03-09T22:33:27.663264","MEAN_MOTION":15.26923259,"ECCENTRICITY":0.00076854,"INCLINATION":97.3178,"RA_OF_ASC_NODE":131.8399,"ARG_OF_PERICENTER":52.546,"MEAN_ANOMALY":307.6477,"EPHEMERIS_TYPE":0,"CLASSIFICATION_TYPE":"U","NORAD_CAT_ID":55047,"ELEMENT_SET_NO":999,"REV_AT_EPOCH":17716,"BSTAR":0.0004947656,"MEAN_MOTION_DOT":0.00013029,"MEAN_MOTION_DDOT":0},{"OBJECT_NAME":"STARLINK-35767","OBJECT_ID":"2025-294AE","EPOCH":"2026-03-09T06:45:48.990528","MEAN_MOTION":15.27600826,"ECCENTRICITY":0.00042303,"INCLINATION":43.0039,"RA_OF_ASC_NODE":40.6469,"ARG_OF_PERICENTER":243.671,"MEAN_ANOMALY":116.3707,"EPHEMERIS_TYPE":0,"CLASSIFICATION_TYPE":"U","NORAD_CAT_ID":67058,"ELEMENT_SET_NO":999,"REV_AT_EPOCH":1473,"BSTAR":0.0013143484,"MEAN_MOTION_DOT":0.00036113,"MEAN_MOTION_DDOT":0}]
